start=new Date('2023-04-25T00:00:00.000Z').valueOf();
sats=[{"RCS_SIZE":"LARGE","PERIOD":"91.638","MEAN_MOTION_DOT":"0.00026441","EPOCH":"2023-04-24T10:47:30.392448","MEAN_MOTION":"15.71401776","INCLINATION":"43.0010","OBJECT_NAME":"STARLINK-6077","CENTER_NAME":"EARTH","TIME_SYSTEM":"UTC","SITE":"AFETR","RA_OF_ASC_NODE":"108.5317","PERIAPSIS":"353.822","ARG_OF_PERICENTER":"252.1934","MEAN_ELEMENT_THEORY":"SGP4","CLASSIFICATION_TYPE":"U","LAUNCH_DATE":"2023-03-29","ELEMENT_SET_NO":"999","SEMIMAJOR_AXIS":"6733.027","TLE_LINE1":"1 56097U 23046E   23114.44965732  .00026441  00000-0  20404-3 0  9993","ECCENTRICITY":"0.00015890","COUNTRY_CODE":"US","MEAN_ANOMALY":"107.8761","REF_FRAME":"TEME","APOAPSIS":"355.962","TLE_LINE2":"2 56097  43.0010 108.5317 0001589 252.1934 107.8761 15.71401776  4048","OBJECT_ID":"2023-046E","REV_AT_EPOCH":"404","MEAN_MOTION_DDOT":"0.0000000000000","OBJECT_TYPE":"PAYLOAD","NORAD_CAT_ID":"56097","BSTAR":"0.00020404000000","EPHEMERIS_TYPE":"0","GP_ID":"230702811","DECAY_DATE":null,"FILE":"3893330"},{"OBJECT_NAME":"STARLINK-6088","INCLINATION":"42.9995","MEAN_MOTION":"15.48931941","MEAN_MOTION_DOT":"0.00009790","EPOCH":"2023-04-24T06:54:15.302304","PERIOD":"92.967","RCS_SIZE":"LARGE","PERIAPSIS":"418.936","ARG_OF_PERICENTER":"262.7443","MEAN_ELEMENT_THEORY":"SGP4","SITE":"AFETR","RA_OF_ASC_NODE":"112.5791","CENTER_NAME":"EARTH","TIME_SYSTEM":"UTC","MEAN_ANOMALY":"97.3264","ECCENTRICITY":"0.00013460","TLE_LINE1":"1 56098U 23046F   23114.28767711  .00009790  00000-0  18271-3 0  9990","COUNTRY_CODE":"US","ELEMENT_SET_NO":"999","SEMIMAJOR_AXIS":"6797.986","CLASSIFICATION_TYPE":"U","LAUNCH_DATE":"2023-03-29","FILE":"3893330","DECAY_DATE":null,"OBJECT_TYPE":"PAYLOAD","BSTAR":"0.00018271000000","NORAD_CAT_ID":"56098","EPHEMERIS_TYPE":"0","GP_ID":"230702984","MEAN_MOTION_DDOT":"0.0000000000000","REF_FRAME":"TEME","APOAPSIS":"420.766","REV_AT_EPOCH":"398","OBJECT_ID":"2023-046F","TLE_LINE2":"2 56098  42.9995 112.5791 0001346 262.7443  97.3264 15.48931941  3982"},{"MEAN_MOTION_DDOT":"0.0000000000000","REF_FRAME":"TEME","APOAPSIS":"420.867","OBJECT_ID":"2023-046G","REV_AT_EPOCH":"399","TLE_LINE2":"2 56099  43.0004 112.1967 0001471 257.5046 102.5649 15.48926671  3998","FILE":"3893330","DECAY_DATE":null,"OBJECT_TYPE":"PAYLOAD","NORAD_CAT_ID":"56099","BSTAR":"0.00009595700000","EPHEMERIS_TYPE":"0","GP_ID":"230702957","ELEMENT_SET_NO":"999","SEMIMAJOR_AXIS":"6798.002","CLASSIFICATION_TYPE":"U","LAUNCH_DATE":"2023-03-29","MEAN_ANOMALY":"102.5649","ECCENTRICITY":"0.00014710","TLE_LINE1":"1 56099U 23046G   23114.35124345  .00004978  00000-0  95957-4 0  9999","COUNTRY_CODE":"US","SITE":"AFETR","RA_OF_ASC_NODE":"112.1967","CENTER_NAME":"EARTH","TIME_SYSTEM":"UTC","PERIAPSIS":"418.867","ARG_OF_PERICENTER":"257.5046","MEAN_ELEMENT_THEORY":"SGP4","PERIOD":"92.968","RCS_SIZE":"LARGE","OBJECT_NAME":"STARLINK-6093","INCLINATION":"43.0004","MEAN_MOTION":"15.48926671","MEAN_MOTION_DOT":"0.00004978","EPOCH":"2023-04-24T08:25:47.434080"},{"COUNTRY_CODE":"US","ECCENTRICITY":"0.00014990","TLE_LINE1":"1 56100U 23046H   23114.35101515  .00008958  00000-0  16773-3 0  9996","MEAN_ANOMALY":"100.4700","LAUNCH_DATE":"2023-03-29","CLASSIFICATION_TYPE":"U","SEMIMAJOR_AXIS":"6797.987","ELEMENT_SET_NO":"999","GP_ID":"230702900","OBJECT_TYPE":"PAYLOAD","NORAD_CAT_ID":"56100","BSTAR":"0.00016773000000","EPHEMERIS_TYPE":"0","FILE":"3893330","DECAY_DATE":null,"OBJECT_ID":"2023-046H","REV_AT_EPOCH":"399","TLE_LINE2":"2 56100  43.0000 112.1924 0001499 259.5990 100.4700 15.48931840  3999","APOAPSIS":"420.871","REF_FRAME":"TEME","MEAN_MOTION_DDOT":"0.0000000000000","EPOCH":"2023-04-24T08:25:27.708960","MEAN_MOTION_DOT":"0.00008958","INCLINATION":"43.0000","OBJECT_NAME":"STARLINK-6076","MEAN_MOTION":"15.48931840","RCS_SIZE":"LARGE","PERIOD":"92.967","ARG_OF_PERICENTER":"259.5990","PERIAPSIS":"418.833","MEAN_ELEMENT_THEORY":"SGP4","TIME_SYSTEM":"UTC","CENTER_NAME":"EARTH","RA_OF_ASC_NODE":"112.1924","SITE":"AFETR"},{"APOAPSIS":"420.785","REF_FRAME":"TEME","REV_AT_EPOCH":"458","OBJECT_ID":"2023-046J","TLE_LINE2":"2 56101  43.0001 110.3122 0001338 269.7779  90.2927 15.48923735  4588","MEAN_MOTION_DDOT":"0.0000000000000","BSTAR":"0.00008423300000","OBJECT_TYPE":"PAYLOAD","NORAD_CAT_ID":"56101","EPHEMERIS_TYPE":"0","GP_ID":"230705337","FILE":"3893438","DECAY_DATE":null,"LAUNCH_DATE":"2023-03-29","CLASSIFICATION_TYPE":"U","ELEMENT_SET_NO":"999","SEMIMAJOR_AXIS":"6798.010","ECCENTRICITY":"0.00013380","TLE_LINE1":"1 56101U 23046J   23114.67320942  .00004328  00000-0  84233-4 0  9993","COUNTRY_CODE":"US","MEAN_ANOMALY":"90.2927","CENTER_NAME":"EARTH","TIME_SYSTEM":"UTC","SITE":"AFETR","RA_OF_ASC_NODE":"110.3122","ARG_OF_PERICENTER":"269.7779","PERIAPSIS":"418.966","MEAN_ELEMENT_THEORY":"SGP4","RCS_SIZE":"LARGE","PERIOD":"92.968","MEAN_MOTION_DOT":"0.00004328","EPOCH":"2023-04-24T16:09:25.293888","OBJECT_NAME":"STARLINK-6095","INCLINATION":"43.0001","MEAN_MOTION":"15.48923735"},{"PERIAPSIS":"418.278","ARG_OF_PERICENTER":"258.7944","MEAN_ELEMENT_THEORY":"SGP4","RA_OF_ASC_NODE":"110.3181","SITE":"AFETR","TIME_SYSTEM":"UTC","CENTER_NAME":"EARTH","MEAN_MOTION":"15.48916669","OBJECT_NAME":"STARLINK-6075","INCLINATION":"42.9976","EPOCH":"2023-04-24T16:10:24.610080","MEAN_MOTION_DOT":"0.00001807","PERIOD":"92.968","RCS_SIZE":"LARGE","DECAY_DATE":null,"FILE":"3893447","GP_ID":"230705495","BSTAR":"0.00003871400000","OBJECT_TYPE":"PAYLOAD","NORAD_CAT_ID":"56102","EPHEMERIS_TYPE":"0","MEAN_MOTION_DDOT":"0.0000000000000","TLE_LINE2":"2 56102  42.9976 110.3181 0002380 258.7944 101.2648 15.48916669  4584","REV_AT_EPOCH":"458","OBJECT_ID":"2023-046K","REF_FRAME":"TEME","APOAPSIS":"421.514","MEAN_ANOMALY":"101.2648","COUNTRY_CODE":"US","TLE_LINE1":"1 56102U 23046K   23114.67389595  .00001807  00000-0  38714-4 0  9995","ECCENTRICITY":"0.00023800","SEMIMAJOR_AXIS":"6798.031","ELEMENT_SET_NO":"999","LAUNCH_DATE":"2023-03-29","CLASSIFICATION_TYPE":"U"},{"SEMIMAJOR_AXIS":"6798.020","ELEMENT_SET_NO":"999","LAUNCH_DATE":"2023-03-29","CLASSIFICATION_TYPE":"U","MEAN_ANOMALY":"96.3101","COUNTRY_CODE":"US","TLE_LINE1":"1 56103U 23046L   23114.67275209  .00002746  00000-0  55662-4 0  9996","ECCENTRICITY":"0.00012800","MEAN_MOTION_DDOT":"0.0000000000000","TLE_LINE2":"2 56103  43.0012 110.3062 0001280 263.7613  96.3101 15.48920580  4588","REV_AT_EPOCH":"458","OBJECT_ID":"2023-046L","APOAPSIS":"420.755","REF_FRAME":"TEME","FILE":"3893438","DECAY_DATE":null,"GP_ID":"230704842","NORAD_CAT_ID":"56103","OBJECT_TYPE":"PAYLOAD","BSTAR":"0.00005566200000","EPHEMERIS_TYPE":"0","PERIOD":"92.968","RCS_SIZE":"LARGE","MEAN_MOTION":"15.48920580","INCLINATION":"43.0012","OBJECT_NAME":"STARLINK-6096","EPOCH":"2023-04-24T16:08:45.780576","MEAN_MOTION_DOT":"0.00002746","RA_OF_ASC_NODE":"110.3062","SITE":"AFETR","TIME_SYSTEM":"UTC","CENTER_NAME":"EARTH","MEAN_ELEMENT_THEORY":"SGP4","PERIAPSIS":"419.014","ARG_OF_PERICENTER":"263.7613"},{"RCS_SIZE":"LARGE","PERIOD":"92.968","EPOCH":"2023-04-24T16:09:05.768352","MEAN_MOTION_DOT":"0.00003620","MEAN_MOTION":"15.48922320","OBJECT_NAME":"STARLINK-6062","INCLINATION":"43.0003","TIME_SYSTEM":"UTC","CENTER_NAME":"EARTH","RA_OF_ASC_NODE":"110.3096","SITE":"AFETR","ARG_OF_PERICENTER":"270.9741","PERIAPSIS":"418.972","MEAN_ELEMENT_THEORY":"SGP4","LAUNCH_DATE":"2023-03-29","CLASSIFICATION_TYPE":"U","SEMIMAJOR_AXIS":"6798.014","ELEMENT_SET_NO":"999","COUNTRY_CODE":"US","TLE_LINE1":"1 56104U 23046M   23114.67298343  .00003620  00000-0  71445-4 0  9990","ECCENTRICITY":"0.00013350","MEAN_ANOMALY":"89.0966","TLE_LINE2":"2 56104  43.0003 110.3096 0001335 270.9741  89.0966 15.48922320  4581","REV_AT_EPOCH":"458","OBJECT_ID":"2023-046M","APOAPSIS":"420.787","REF_FRAME":"TEME","MEAN_MOTION_DDOT":"0.0000000000000","GP_ID":"230704836","OBJECT_TYPE":"PAYLOAD","BSTAR":"0.00007144500000","EPHEMERIS_TYPE":"0","NORAD_CAT_ID":"56104","FILE":"3893438","DECAY_DATE":null},{"NORAD_CAT_ID":"56105","OBJECT_TYPE":"PAYLOAD","BSTAR":"0.00010655000000","EPHEMERIS_TYPE":"0","GP_ID":"230702812","FILE":"3893330","DECAY_DATE":null,"REF_FRAME":"TEME","APOAPSIS":"420.790","TLE_LINE2":"2 56105  42.9996 111.4314 0001368 269.3624  90.7079 15.48928996  4011","OBJECT_ID":"2023-046N","REV_AT_EPOCH":"401","MEAN_MOTION_DDOT":"0.0000000000000","TLE_LINE1":"1 56105U 23046N   23114.47838176  .00005566  00000-0  10655-3 0  9999","ECCENTRICITY":"0.00013680","COUNTRY_CODE":"US","MEAN_ANOMALY":"90.7079","LAUNCH_DATE":"2023-03-29","CLASSIFICATION_TYPE":"U","ELEMENT_SET_NO":"999","SEMIMAJOR_AXIS":"6797.995","PERIAPSIS":"418.930","ARG_OF_PERICENTER":"269.3624","MEAN_ELEMENT_THEORY":"SGP4","CENTER_NAME":"EARTH","TIME_SYSTEM":"UTC","SITE":"AFETR","RA_OF_ASC_NODE":"111.4314","MEAN_MOTION_DOT":"0.00005566","EPOCH":"2023-04-24T11:28:52.184064","MEAN_MOTION":"15.48928996","OBJECT_NAME":"STARLINK-6066","INCLINATION":"42.9996","RCS_SIZE":"LARGE","PERIOD":"92.967"},{"GP_ID":"230702985","BSTAR":"0.00016364000000","OBJECT_TYPE":"PAYLOAD","NORAD_CAT_ID":"56106","EPHEMERIS_TYPE":"0","DECAY_DATE":null,"FILE":"3893330","TLE_LINE2":"2 56106  43.0001 112.1853 0001466 248.0241 112.0462 15.48933614  3998","OBJECT_ID":"2023-046P","REV_AT_EPOCH":"399","APOAPSIS":"420.843","REF_FRAME":"TEME","MEAN_MOTION_DDOT":"0.0000000000000","COUNTRY_CODE":"US","TLE_LINE1":"1 56106U 23046P   23114.34987170  .00008732  00000-0  16364-3 0  9996","ECCENTRICITY":"0.00014660","MEAN_ANOMALY":"112.0462","CLASSIFICATION_TYPE":"U","LAUNCH_DATE":"2023-03-29","SEMIMAJOR_AXIS":"6797.981","ELEMENT_SET_NO":"999","PERIAPSIS":"418.850","ARG_OF_PERICENTER":"248.0241","MEAN_ELEMENT_THEORY":"SGP4","TIME_SYSTEM":"UTC","CENTER_NAME":"EARTH","RA_OF_ASC_NODE":"112.1853","SITE":"AFETR","EPOCH":"2023-04-24T08:23:48.914880","MEAN_MOTION_DOT":"0.00008732","MEAN_MOTION":"15.48933614","INCLINATION":"43.0001","OBJECT_NAME":"STARLINK-6078","RCS_SIZE":"LARGE","PERIOD":"92.967"}];
